STARLINK-2409_new
1 17824C 21018AP  21326.16027707  .00004754  00000-0  31846-3 0  3260
2 17824  53.0531  93.0305 0001161  72.6967 346.7535 15.06398090    15
STARLINK-2409_old
1 27824C 21018AP  21325.14096657  .00001914  00000-0  12827-3 0  3259
2 27824  53.0529  97.6062 0001171  75.9365 212.7095 15.06391221    13
